start=new Date('2022-07-11T00:00:00.000Z').valueOf();
sats=[{"LAUNCH_DATE":"2021-02-04","RCS_SIZE":"LARGE","OBJECT_TYPE":"PAYLOAD","OBJECT_ID":"2021-009D","CENTER_NAME":"EARTH","PERIOD":"95.592","SEMIMAJOR_AXIS":"6925.355","ELEMENT_SET_NO":"999","REF_FRAME":"TEME","INCLINATION":"53.0544","COUNTRY_CODE":"US","TIME_SYSTEM":"UTC","TLE_LINE2":"2 47551  53.0544 268.8461 0001639  55.4074 304.7069 15.06397778 79103","FILE":"3511318","REV_AT_EPOCH":"7910","GP_ID":"207874290","OBJECT_NAME":"STARLINK-1938","MEAN_ELEMENT_THEORY":"SGP4","MEAN_ANOMALY":"304.7069","RA_OF_ASC_NODE":"268.8461","MEAN_MOTION":"15.06397778","MEAN_MOTION_DOT":"-0.00000691","APOAPSIS":"548.355","ECCENTRICITY":"0.00016390","PERIAPSIS":"546.085","MEAN_MOTION_DDOT":"0.0000000000000","SITE":"AFETR","TLE_LINE1":"1 47551U 21009D   22191.53436036 -.00000691  00000-0 -27488-4 0  9990","NORAD_CAT_ID":"47551","DECAY_DATE":null,"EPOCH":"2022-07-10T12:49:28.735104","EPHEMERIS_TYPE":"0","ARG_OF_PERICENTER":"55.4074","BSTAR":"-0.00002748800000","CLASSIFICATION_TYPE":"U"},{"COUNTRY_CODE":"US","INCLINATION":"53.0550","TIME_SYSTEM":"UTC","TLE_LINE2":"2 47552  53.0550 258.5243 0001370  66.8413 293.2720 15.06416040 79256","FILE":"3511318","REV_AT_EPOCH":"7925","LAUNCH_DATE":"2021-02-04","RCS_SIZE":"LARGE","OBJECT_TYPE":"PAYLOAD","OBJECT_ID":"2021-009E","PERIOD":"95.591","SEMIMAJOR_AXIS":"6925.299","CENTER_NAME":"EARTH","ELEMENT_SET_NO":"999","REF_FRAME":"TEME","RA_OF_ASC_NODE":"258.5243","MEAN_MOTION":"15.06416040","GP_ID":"207875034","OBJECT_NAME":"STARLINK-1940","MEAN_ELEMENT_THEORY":"SGP4","MEAN_ANOMALY":"293.2720","ECCENTRICITY":"0.00013700","PERIAPSIS":"546.216","MEAN_MOTION_DOT":"-0.00005899","APOAPSIS":"548.113","EPOCH":"2022-07-10T14:31:39.040608","EPHEMERIS_TYPE":"0","ARG_OF_PERICENTER":"66.8413","BSTAR":"-0.00037725000000","CLASSIFICATION_TYPE":"U","MEAN_MOTION_DDOT":"0.0000000000000","SITE":"AFETR","TLE_LINE1":"1 47552U 21009E   22191.60531297 -.00005899  00000-0 -37725-3 0  9993","NORAD_CAT_ID":"47552","DECAY_DATE":null},{"MEAN_MOTION_DOT":"-0.00001402","APOAPSIS":"548.132","ECCENTRICITY":"0.00012850","PERIAPSIS":"546.352","SITE":"AFETR","MEAN_MOTION_DDOT":"0.0000000000000","NORAD_CAT_ID":"47554","TLE_LINE1":"1 47554U 21009G   22191.67719040 -.00001402  00000-0 -75234-4 0  9990","DECAY_DATE":null,"EPOCH":"2022-07-10T16:15:09.250560","ARG_OF_PERICENTER":"69.1579","EPHEMERIS_TYPE":"0","BSTAR":"-0.00007523400000","CLASSIFICATION_TYPE":"U","LAUNCH_DATE":"2021-02-04","RCS_SIZE":"LARGE","OBJECT_ID":"2021-009G","OBJECT_TYPE":"PAYLOAD","ELEMENT_SET_NO":"999","SEMIMAJOR_AXIS":"6925.377","PERIOD":"95.593","CENTER_NAME":"EARTH","REF_FRAME":"TEME","TIME_SYSTEM":"UTC","COUNTRY_CODE":"US","INCLINATION":"53.0543","TLE_LINE2":"2 47554  53.0543 278.1925 0001285  69.1579 290.9547 15.06390764 78983","REV_AT_EPOCH":"7898","FILE":"3511318","GP_ID":"207873789","OBJECT_NAME":"STARLINK-1953","MEAN_ELEMENT_THEORY":"SGP4","MEAN_ANOMALY":"290.9547","MEAN_MOTION":"15.06390764","RA_OF_ASC_NODE":"278.1925"},{"EPOCH":"2022-07-10T17:14:52.108224","ARG_OF_PERICENTER":"75.6053","EPHEMERIS_TYPE":"0","BSTAR":"0.00003753200000","CLASSIFICATION_TYPE":"U","MEAN_MOTION_DDOT":"0.0000000000000","SITE":"AFETR","TLE_LINE1":"1 47555U 21009H   22191.71865866  .00000277  00000-0  37532-4 0  9990","NORAD_CAT_ID":"47555","DECAY_DATE":null,"ECCENTRICITY":"0.00017480","PERIAPSIS":"546.042","MEAN_MOTION_DOT":"0.00000277","APOAPSIS":"548.463","RA_OF_ASC_NODE":"267.9987","MEAN_MOTION":"15.06387318","GP_ID":"207850688","OBJECT_NAME":"STARLINK-1954","MEAN_ANOMALY":"284.5129","MEAN_ELEMENT_THEORY":"SGP4","INCLINATION":"53.0539","COUNTRY_CODE":"US","TIME_SYSTEM":"UTC","TLE_LINE2":"2 47555  53.0539 267.9987 0001748  75.6053 284.5129 15.06387318 79736","FILE":"3511225","REV_AT_EPOCH":"7973","RCS_SIZE":"LARGE","LAUNCH_DATE":"2021-02-04","OBJECT_TYPE":"PAYLOAD","OBJECT_ID":"2021-009H","CENTER_NAME":"EARTH","PERIOD":"95.593","SEMIMAJOR_AXIS":"6925.387","ELEMENT_SET_NO":"999","REF_FRAME":"TEME"},{"LAUNCH_DATE":"2021-02-04","RCS_SIZE":"LARGE","OBJECT_ID":"2021-009J","OBJECT_TYPE":"PAYLOAD","ELEMENT_SET_NO":"999","SEMIMAJOR_AXIS":"6925.349","PERIOD":"95.592","CENTER_NAME":"EARTH","REF_FRAME":"TEME","TIME_SYSTEM":"UTC","INCLINATION":"53.0551","COUNTRY_CODE":"US","TLE_LINE2":"2 47556  53.0551 288.1525 0001436  68.4918 291.6224 15.06399744 78840","REV_AT_EPOCH":"7884","FILE":"3511318","GP_ID":"207874790","OBJECT_NAME":"STARLINK-1955","MEAN_ELEMENT_THEORY":"SGP4","MEAN_ANOMALY":"291.6224","MEAN_MOTION":"15.06399744","RA_OF_ASC_NODE":"288.1525","MEAN_MOTION_DOT":"0.00000815","APOAPSIS":"548.209","ECCENTRICITY":"0.00014360","PERIAPSIS":"546.220","MEAN_MOTION_DDOT":"0.0000000000000","SITE":"AFETR","NORAD_CAT_ID":"47556","TLE_LINE1":"1 47556U 21009J   22191.68732324  .00000815  00000-0  73585-4 0  9995","DECAY_DATE":null,"EPOCH":"2022-07-10T16:29:44.727936","ARG_OF_PERICENTER":"68.4918","EPHEMERIS_TYPE":"0","BSTAR":"0.00007358500000","CLASSIFICATION_TYPE":"U"},{"MEAN_MOTION_DDOT":"0.0000000000000","SITE":"AFETR","TLE_LINE1":"1 47557U 21009K   22191.65046985 -.00004823  00000-0 -30522-3 0  9992","NORAD_CAT_ID":"47557","DECAY_DATE":null,"EPOCH":"2022-07-10T15:36:40.595040","ARG_OF_PERICENTER":"69.0619","EPHEMERIS_TYPE":"0","CLASSIFICATION_TYPE":"U","BSTAR":"-0.00030522000000","MEAN_MOTION_DOT":"-0.00004823","APOAPSIS":"548.214","ECCENTRICITY":"0.00013730","PERIAPSIS":"546.313","GP_ID":"207874535","OBJECT_NAME":"STARLINK-1956","MEAN_ANOMALY":"291.0517","MEAN_ELEMENT_THEORY":"SGP4","RA_OF_ASC_NODE":"288.3058","MEAN_MOTION":"15.06383727","RCS_SIZE":"LARGE","LAUNCH_DATE":"2021-02-04","OBJECT_TYPE":"PAYLOAD","OBJECT_ID":"2021-009K","CENTER_NAME":"EARTH","PERIOD":"95.593","SEMIMAJOR_AXIS":"6925.398","ELEMENT_SET_NO":"999","REF_FRAME":"TEME","COUNTRY_CODE":"US","INCLINATION":"53.0531","TIME_SYSTEM":"UTC","TLE_LINE2":"2 47557  53.0531 288.3058 0001373  69.0619 291.0517 15.06383727 78840","FILE":"3511318","REV_AT_EPOCH":"7884"},{"MEAN_ANOMALY":"308.3243","MEAN_ELEMENT_THEORY":"SGP4","GP_ID":"207873289","OBJECT_NAME":"STARLINK-1957","RA_OF_ASC_NODE":"258.4052","MEAN_MOTION":"15.06388137","CENTER_NAME":"EARTH","PERIOD":"95.593","SEMIMAJOR_AXIS":"6925.385","ELEMENT_SET_NO":"999","REF_FRAME":"TEME","RCS_SIZE":"LARGE","LAUNCH_DATE":"2021-02-04","OBJECT_ID":"2021-009L","OBJECT_TYPE":"PAYLOAD","TLE_LINE2":"2 47558  53.0532 258.4052 0001672  51.7896 308.3243 15.06388137 79255","FILE":"3511318","REV_AT_EPOCH":"7925","COUNTRY_CODE":"US","INCLINATION":"53.0532","TIME_SYSTEM":"UTC","TLE_LINE1":"1 47558U 21009L   22191.63111547 -.00003119  00000-0 -19061-3 0  9990","NORAD_CAT_ID":"47558","DECAY_DATE":null,"SITE":"AFETR","MEAN_MOTION_DDOT":"0.0000000000000","ARG_OF_PERICENTER":"51.7896","EPHEMERIS_TYPE":"0","BSTAR":"-0.00019061000000","CLASSIFICATION_TYPE":"U","EPOCH":"2022-07-10T15:08:48.376608","APOAPSIS":"548.408","MEAN_MOTION_DOT":"-0.00003119","ECCENTRICITY":"0.00016720","PERIAPSIS":"546.092"},{"MEAN_ELEMENT_THEORY":"SGP4","MEAN_ANOMALY":"293.5453","GP_ID":"207873539","OBJECT_NAME":"STARLINK-1958","RA_OF_ASC_NODE":"247.3724","MEAN_MOTION":"15.06387375","SEMIMAJOR_AXIS":"6925.387","PERIOD":"95.593","CENTER_NAME":"EARTH","ELEMENT_SET_NO":"999","REF_FRAME":"TEME","LAUNCH_DATE":"2021-02-04","RCS_SIZE":"LARGE","OBJECT_ID":"2021-009M","OBJECT_TYPE":"PAYLOAD","TLE_LINE2":"2 47559  53.0541 247.3724 0001598  66.5703 293.5453 15.06387375 79438","FILE":"3511318","REV_AT_EPOCH":"7943","INCLINATION":"53.0541","COUNTRY_CODE":"US","TIME_SYSTEM":"UTC","TLE_LINE1":"1 47559U 21009M   22191.86057706 -.00002374  00000-0 -14058-3 0  9995","NORAD_CAT_ID":"47559","DECAY_DATE":null,"MEAN_MOTION_DDOT":"0.0000000000000","SITE":"AFETR","ARG_OF_PERICENTER":"66.5703","EPHEMERIS_TYPE":"0","BSTAR":"-0.00014058000000","CLASSIFICATION_TYPE":"U","EPOCH":"2022-07-10T20:39:13.857984","APOAPSIS":"548.359","MEAN_MOTION_DOT":"-0.00002374","ECCENTRICITY":"0.00015980","PERIAPSIS":"546.146"},{"MEAN_MOTION_DOT":"-0.00001122","APOAPSIS":"548.235","PERIAPSIS":"546.247","ECCENTRICITY":"0.00014350","MEAN_MOTION_DDOT":"0.0000000000000","SITE":"AFETR","DECAY_DATE":null,"NORAD_CAT_ID":"47560","TLE_LINE1":"1 47560U 21009N   22191.85225276 -.00001122  00000-0 -56436-4 0  9992","EPOCH":"2022-07-10T20:27:14.638464","BSTAR":"-0.00005643600000","CLASSIFICATION_TYPE":"U","ARG_OF_PERICENTER":"71.8705","EPHEMERIS_TYPE":"0","OBJECT_ID":"2021-009N","OBJECT_TYPE":"PAYLOAD","LAUNCH_DATE":"2021-02-04","RCS_SIZE":"LARGE","REF_FRAME":"TEME","ELEMENT_SET_NO":"999","PERIOD":"95.593","CENTER_NAME":"EARTH","SEMIMAJOR_AXIS":"6925.376","TIME_SYSTEM":"UTC","COUNTRY_CODE":"US","INCLINATION":"53.0526","REV_AT_EPOCH":"7943","FILE":"3511318","TLE_LINE2":"2 47560  53.0526 247.3916 0001435  71.8705 288.2440 15.06391140 79439","OBJECT_NAME":"STARLINK-1959","GP_ID":"207874291","MEAN_ELEMENT_THEORY":"SGP4","MEAN_ANOMALY":"288.2440","MEAN_MOTION":"15.06391140","RA_OF_ASC_NODE":"247.3916"},{"SITE":"AFETR","MEAN_MOTION_DDOT":"0.0000000000000","NORAD_CAT_ID":"47561","TLE_LINE1":"1 47561U 21009P   22191.64127629 -.00004024  00000-0 -25155-3 0  9990","DECAY_DATE":null,"EPOCH":"2022-07-10T15:23:26.271456","ARG_OF_PERICENTER":"92.5516","EPHEMERIS_TYPE":"0","BSTAR":"-0.00025155000000","CLASSIFICATION_TYPE":"U","MEAN_MOTION_DOT":"-0.00004024","APOAPSIS":"548.189","ECCENTRICITY":"0.00013050","PERIAPSIS":"546.381","GP_ID":"207875035","OBJECT_NAME":"STARLINK-1960","MEAN_ELEMENT_THEORY":"SGP4","MEAN_ANOMALY":"267.5622","MEAN_MOTION":"15.06376670","RA_OF_ASC_NODE":"268.3648","LAUNCH_DATE":"2021-02-04","RCS_SIZE":"LARGE","OBJECT_TYPE":"PAYLOAD","OBJECT_ID":"2021-009P","ELEMENT_SET_NO":"999","PERIOD":"95.594","SEMIMAJOR_AXIS":"6925.420","CENTER_NAME":"EARTH","REF_FRAME":"TEME","TIME_SYSTEM":"UTC","INCLINATION":"53.0536","COUNTRY_CODE":"US","TLE_LINE2":"2 47561  53.0536 268.3648 0001305  92.5516 267.5622 15.06376670 79121","REV_AT_EPOCH":"7912","FILE":"3511318"}];
